NORAD_CAT_ID,OBJECT_NAME,OBJECT_TYPE,EPOCH,MEAN_MOTION,ECCENTRICITY,INCLINATION,RA_OF_ASC_NODE,ARG_OF_PERICENTER,MEAN_ANOMALY,BSTAR,MEAN_MOTION_DOT,MEAN_MOTION_DDOT,TLE_LINE0,TLE_LINE1,TLE_LINE2,SEMIMAJOR_AXIS,PERIOD,APOGEE,PERIGEE,DECAYED
52584.0,STARLINK-3922,PAYLOAD,2023-12-01 00:30:14,15.08831564,0.0001429,53.219,243.6487,112.5846,247.5297,6.0301e-05,6.72e-06,0.0,0 STARLINK-3922,1 52584U 22051BA  23335.02099812  .00000672  00000-0  60301-4 0  9990,2 52584  53.2190 243.6487 0001429 112.5846 247.5297 15.08831564 86408,6917.906,95.438,540.76,538.783,0.0
52584.0,STARLINK-3922,PAYLOAD,2023-12-01 22:45:37,15.08879447,0.0001343,53.2177,239.4925,79.3759,280.7385,0.0015138,0.00023912,0.0,0 STARLINK-3922,1 52584U 22051BA  23335.94835008  .00023912  00000-0  15138-2 0  9994,2 52584  53.2177 239.4925 0001343  79.3759 280.7385 15.08879447 86477,6917.76,95.435,540.554,538.696,0.0
52584.0,STARLINK-3922,PAYLOAD,2023-12-02 00:21:00,15.08887315,0.0001385,53.2171,239.1968,100.1889,259.926,0.0016823,0.00026622,0.0,0 STARLINK-3922,1 52584U 22051BA  23336.01458692  .00026622  00000-0  16823-2 0  9996,2 52584  53.2171 239.1968 0001385 100.1889 259.9260 15.08887315 86550,6917.736,95.435,540.559,538.643,0.0
52584.0,STARLINK-3922,PAYLOAD,2023-12-02 03:31:45,15.08908142,0.0001495,53.2172,238.5913,115.0748,245.04,0.0021398,0.00033995,0.0,0 STARLINK-3922,1 52584U 22051BA  23336.14705846  .00033995  00000-0  21398-2 0  9990,2 52584  53.2172 238.5913 0001495 115.0748 245.0400 15.08908142 86571,6917.672,95.433,540.571,538.503,0.0
52584.0,STARLINK-3922,PAYLOAD,2023-12-02 22:36:23,15.08882431,0.0002238,53.217,235.0228,146.4718,213.6417,0.00096206,0.00015074,0.0,0 STARLINK-3922,1 52584U 22051BA  23336.94193373  .00015074  00000-0  96206-3 0  9993,2 52584  53.2170 235.0228 0002238 146.4718 213.6417 15.08882431 86628,6917.751,95.435,541.164,538.068,0.0
52584.0,STARLINK-3922,PAYLOAD,2023-12-03 03:22:31,15.08899399,0.0001877,53.2171,234.1261,138.7439,221.3695,0.0012877,0.00020299,0.0,0 STARLINK-3922,1 52584U 22051BA  23337.14064660  .00020299  00000-0  12877-2 0  9998,2 52584  53.2171 234.1261 0001877 138.7439 221.3695 15.08899399 86724,6917.699,95.434,540.862,538.265,0.0
52584.0,STARLINK-3922,PAYLOAD,2023-12-04 01:37:57,15.08809705,0.0001519,53.2155,229.9699,133.016,227.096,0.00017291,2.463e-05,0.0,0 STARLINK-3922,1 52584U 22051BA  23338.06802191  .00002463  00000-0  17291-3 0  9998,2 52584  53.2155 229.9699 0001519 133.0160 227.0960 15.08809705 86860,6917.973,95.439,540.889,538.787,0.0
52584.0,STARLINK-3922,PAYLOAD,2023-12-04 15:56:25,15.08822803,0.0001214,53.2156,227.296,128.6359,231.4742,-0.00011647,-2.14e-05,0.0,0 STARLINK-3922,1 52584U 22051BA  23338.66418897 -.00002140  00000-0 -11647-3 0  9993,2 52584  53.2156 227.2960 0001214 128.6359 231.4742 15.08822803 86956,6917.933,95.439,540.638,538.958,0.0
52584.0,STARLINK-3922,PAYLOAD,2023-12-05 03:04:07,15.08834453,0.0001273,53.2156,225.216,133.6942,226.4156,5.2049e-06,-2.05e-06,0.0,0 STARLINK-3922,1 52584U 22051BA  23339.12786876 -.00000205  00000-0  52049-5 0  9992,2 52584  53.2156 225.2160 0001273 133.6942 226.4156 15.08834453 87021,6917.897,95.438,540.643,538.882,0.0
52584.0,STARLINK-3922,PAYLOAD,2023-12-06 01:19:32,15.08833706,0.0001158,53.2155,221.0522,119.7606,240.3501,0.0003086,4.626e-05,0.0,0 STARLINK-3922,1 52584U 22051BA  23340.05523873  .00004626  00000-0  30860-3 0  9997,2 52584  53.2155 221.0522 0001158 119.7606 240.3501 15.08833706 87164,6917.9,95.438,540.566,538.964,0.0
52584.0,STARLINK-3922,PAYLOAD,2023-12-06 21:59:34,15.08812478,0.0001138,53.2153,217.1875,125.4246,234.6853,-0.00017046,-2.998e-05,0.0,0 STARLINK-3922,1 52584U 22051BA  23340.91637641 -.00002998  00000-0 -17046-3 0  9994,2 52584  53.2153 217.1875 0001138 125.4246 234.6853 15.08812478 87227,6917.965,95.439,540.617,539.042,0.0
52584.0,STARLINK-3922,PAYLOAD,2023-12-07 01:10:21,15.08819516,0.0001158,53.2168,216.5888,109.558,250.5537,-8.1992e-05,-1.592e-05,0.0,0 STARLINK-3922,1 52584U 22051BA  23341.04885727 -.00001592  00000-0 -81992-4 0  9990,2 52584  53.2168 216.5888 0001158 109.5580 250.5537 15.08819516 87312,6917.943,95.439,540.609,539.007,0.0
52584.0,STARLINK-3922,PAYLOAD,2023-12-08 01:01:08,15.08834783,0.0001315,53.2159,212.1321,88.8304,271.2839,0.00043197,6.593e-05,0.0,0 STARLINK-3922,1 52584U 22051BA  23342.04246071  .00006593  00000-0  43197-3 0  9992,2 52584  53.2159 212.1321 0001315  88.8304 271.2839 15.08834783 87468,6917.896,95.438,540.671,538.852,0.0
52584.0,STARLINK-3922,PAYLOAD,2023-12-10 00:42:41,15.08855293,0.0001272,53.2162,203.211,99.5387,260.5749,0.00021779,3.181e-05,0.0,0 STARLINK-3922,1 52584U 22051BA  23344.02964292  .00003181  00000-0  21779-3 0  9996,2 52584  53.2162 203.2110 0001272  99.5387 260.5749 15.08855293 87764,6917.834,95.437,540.579,538.819,0.0
52584.0,STARLINK-3922,PAYLOAD,2023-12-10 19:47:19,15.08840315,0.0001355,53.2165,199.6415,90.4584,269.6564,4.0938e-05,3.64e-06,0.0,0 STARLINK-3922,1 52584U 22051BA  23344.82452878  .00000364  00000-0  40938-4 0  9995,2 52584  53.2165 199.6415 0001355  90.4584 269.6564 15.08840315 87881,6917.879,95.438,540.682,538.807,0.0
52584.0,STARLINK-3922,PAYLOAD,2023-12-10 21:22:42,15.08840651,0.0001545,53.2168,199.339,125.2528,234.8609,5.2762e-05,5.52e-06,0.0,0 STARLINK-3922,1 52584U 22051BA  23344.89076763  .00000552  00000-0  52762-4 0  9994,2 52584  53.2168 199.3390 0001545 125.2528 234.8609 15.08840651 87820,6917.878,95.438,540.812,538.675,0.0
52584.0,STARLINK-3922,PAYLOAD,2023-12-11 19:38:05,15.08841197,0.0001448,53.2163,195.1788,104.4277,255.6876,8.5256e-05,1.069e-05,0.0,0 STARLINK-3922,1 52584U 22051BA  23345.81811995  .00001069  00000-0  85256-4 0  9999,2 52584  53.2163 195.1788 0001448 104.4277 255.6876 15.08841197 88039,6917.877,95.437,540.743,538.74,0.0
52584.0,STARLINK-3922,PAYLOAD,2023-12-11 21:13:28,15.08840591,0.0001405,53.2164,194.882,98.8908,261.2243,8.0911e-05,1e-05,0.0,0 STARLINK-3922,1 52584U 22051BA  23345.88436005  .00001000  00000-0  80911-4 0  9999,2 52584  53.2164 194.8820 0001405  98.8908 261.2243 15.08840591 87973,6917.879,95.438,540.716,538.772,0.0
52584.0,STARLINK-3922,PAYLOAD,2023-12-12 19:28:53,15.08836127,0.0001451,53.2167,190.7198,104.8581,255.2572,1.7517e-05,-9e-08,0.0,0 STARLINK-3922,1 52584U 22051BA  23346.81172634 -.00000009  00000-0  17517-4 0  9999,2 52584  53.2167 190.7198 0001451 104.8581 255.2572 15.08836127 88187,6917.892,95.438,540.761,538.753,0.0
52584.0,STARLINK-3922,PAYLOAD,2023-12-13 19:19:39,15.08840724,0.0001468,53.2167,186.2584,102.937,257.1786,6.0248e-05,6.71e-06,0.0,0 STARLINK-3922,1 52584U 22051BA  23347.80532324  .00000671  00000-0  60248-4 0  9998,2 52584  53.2167 186.2584 0001468 102.9370 257.1786 15.08840724 88332,6917.878,95.438,540.759,538.728,0.0
52584.0,STARLINK-3922,PAYLOAD,2023-12-13 20:55:03,15.088414,0.0001395,53.2166,185.9609,93.3907,266.7244,5.857e-05,6.44e-06,0.0,0 STARLINK-3922,1 52584U 22051BA  23347.87156317  .00000644  00000-0  58570-4 0  9994,2 52584  53.2166 185.9609 0001395  93.3907 266.7244 15.08841400 88273,6917.876,95.437,540.706,538.776,0.0
52584.0,STARLINK-3922,PAYLOAD,2023-12-14 20:45:50,15.08841591,0.0001335,53.2163,181.5023,93.2653,266.8492,9.8026e-05,1.273e-05,0.0,0 STARLINK-3922,1 52584U 22051BA  23348.86516312  .00001273  00000-0  98026-4 0  9998,2 52584  53.2163 181.5023 0001335  93.2653 266.8492 15.08841591 88494,6917.876,95.437,540.664,538.817,0.0
52584.0,STARLINK-3922,PAYLOAD,2023-12-15 19:01:14,15.08837128,0.0001436,53.2164,177.3434,85.7937,274.322,6.3275e-06,-1.87e-06,0.0,0 STARLINK-3922,1 52584U 22051BA  23349.79253068 -.00000187  00000-0  63275-5 0  9990,2 52584  53.2164 177.3434 0001436  85.7937 274.3220 15.08837128 88637,6917.889,95.438,540.748,538.761,0.0
52584.0,STARLINK-3922,PAYLOAD,2023-12-16 18:52:01,15.0884186,0.0001417,53.2166,172.8804,90.2705,269.8449,6.7633e-05,7.89e-06,0.0,0 STARLINK-3922,1 52584U 22051BA  23350.78612628  .00000789  00000-0  67633-4 0  9990,2 52584  53.2166 172.8804 0001417  90.2705 269.8449 15.08841860 88789,6917.875,95.437,540.72,538.759,0.0
52584.0,STARLINK-3922,PAYLOAD,2023-12-17 17:07:25,15.08840227,0.0001358,53.2168,168.7097,96.7094,263.4052,8.1975e-05,1.017e-05,0.0,0 STARLINK-3922,1 52584U 22051BA  23351.71348624  .00001017  00000-0  81975-4 0  9996,2 52584  53.2168 168.7097 0001358  96.7094 263.4052 15.08840227 88927,6917.88,95.438,540.684,538.805,0.0
52584.0,STARLINK-3922,PAYLOAD,2023-12-18 18:33:35,15.08844321,0.0001373,53.217,163.9568,101.8257,258.2889,6.8645e-05,8.05e-06,0.0,0 STARLINK-3922,1 52584U 22051BA  23352.77332377  .00000805  00000-0  68645-4 0  9994,2 52584  53.2170 163.9568 0001373 101.8257 258.2889 15.08844321 89083,6917.867,95.437,540.682,538.782,0.0
52584.0,STARLINK-3922,PAYLOAD,2023-12-19 13:38:13,15.08838368,0.0001322,53.2164,160.3857,92.265,267.8494,3.2829e-05,2.35e-06,0.0,0 STARLINK-3922,1 52584U 22051BA  23353.56820883  .00000235  00000-0  32829-4 0  9998,2 52584  53.2164 160.3857 0001322  92.2650 267.8494 15.08838368 89130,6917.885,95.438,540.665,538.836,0.0
52584.0,STARLINK-3922,PAYLOAD,2023-12-19 16:48:59,15.08838442,0.0001302,53.2167,159.7903,96.5243,263.5898,2.6549e-05,1.35e-06,0.0,0 STARLINK-3922,1 52584U 22051BA  23353.70068840  .00000135  00000-0  26549-4 0  9992,2 52584  53.2167 159.7903 0001302  96.5243 263.5898 15.08838442 89224,6917.885,95.438,540.651,538.849,0.0
52584.0,STARLINK-3922,PAYLOAD,2023-12-20 18:15:09,15.08841578,0.0001257,53.2168,155.0342,84.1854,275.9281,5.0667e-05,5.19e-06,0.0,0 STARLINK-3922,1 52584U 22051BA  23354.76052750  .00000519  00000-0  50667-4 0  9996,2 52584  53.2168 155.0342 0001257  84.1854 275.9281 15.08841578 89385,6917.876,95.437,540.61,538.871,0.0
52584.0,STARLINK-3922,PAYLOAD,2023-12-21 14:55:10,15.0883751,0.0001278,53.2172,151.1691,75.6201,284.4933,8.5239e-05,1.069e-05,0.0,0 STARLINK-3922,1 52584U 22051BA  23355.62165061  .00001069  00000-0  85239-4 0  9996,2 52584  53.2172 151.1691 0001278  75.6201 284.4933 15.08837510 89445,6917.888,95.438,540.637,538.869,0.0
